{"type":"FeatureCollection","features":[{"type":"Feature","id":1,"geometry":{"type":"Point","coordinates":[-119.20469166899994,40.78567324100004]},"properties":{"OBJECTID":1,"FID":0,"NAME":"1200 Promenade","TYPE":"CPN"}},{"type":"Feature","id":2,"geometry":{"type":"Point","coordinates":[-119.19967544699995,40.777007772000047]},"properties":{"OBJECTID":2,"FID":1,"NAME":"3 & B Plaza","TYPE":"CPN"}},{"type":"Feature","id":3,"geometry":{"type":"Point","coordinates":[-119.20150089099997,40.778395507000027]},"properties":{"OBJECTID":3,"FID":2,"NAME":"300 Portal","TYPE":"CPN"}},{"type":"Feature","id":4,"geometry":{"type":"Point","coordinates":[-119.20471764999996,40.780840738000052]},"properties":{"OBJECTID":4,"FID":3,"NAME":"300 Promenade","TYPE":"CPN"}},{"type":"Feature","id":5,"geometry":{"type":"Point","coordinates":[-119.20788312599996,40.770003523000071]},"properties":{"OBJECTID":5,"FID":4,"NAME":"430 & G Plaza","TYPE":"CPN"}},{"type":"Feature","id":6,"geometry":{"type":"Point","coordinates":[-119.20788359299996,40.77638580100006]},"properties":{"OBJECTID":6,"FID":5,"NAME":"430 Portal","TYPE":"CPN"}},{"type":"Feature","id":7,"geometry":{"type":"Point","coordinates":[-119.21361143899998,40.77889310300003]},"properties":{"OBJECTID":7,"FID":6,"NAME":"600 Portal","TYPE":"CPN"}},{"type":"Feature","id":8,"geometry":{"type":"Point","coordinates":[-119.21074770799999,40.781069950000074]},"properties":{"OBJECTID":8,"FID":7,"NAME":"600 Promenade","TYPE":"CPN"}},{"type":"Feature","id":9,"geometry":{"type":"Point","coordinates":[-119.22530772999994,40.783245395000051]},"properties":{"OBJECTID":9,"FID":8,"NAME":"730 & G Plaza","TYPE":"CPN"}},{"type":"Feature","id":10,"geometry":{"type":"Point","coordinates":[-119.21691124599994,40.78324671300004]},"properties":{"OBJECTID":10,"FID":9,"NAME":"730 Portal","TYPE":"CPN"}},{"type":"Feature","id":11,"geometry":{"type":"Point","coordinates":[-119.21609428199997,40.789486532000069]},"properties":{"OBJECTID":11,"FID":10,"NAME":"9 & B Plaza","TYPE":"CPN"}},{"type":"Feature","id":12,"geometry":{"type":"Point","coordinates":[-119.21426803099996,40.788098862000027]},"properties":{"OBJECTID":12,"FID":11,"NAME":"900 Portal","TYPE":"CPN"}},{"type":"Feature","id":13,"geometry":{"type":"Point","coordinates":[-119.21107563399994,40.785672962000035]},"properties":{"OBJECTID":13,"FID":12,"NAME":"900 Promenade","TYPE":"CPN"}},{"type":"Feature","id":14,"geometry":{"type":"Point","coordinates":[-119.21010212799996,40.760545282000066]},"properties":{"OBJECTID":14,"FID":13,"NAME":"Airport","TYPE":"CPN"}},{"type":"Feature","id":15,"geometry":{"type":"Point","coordinates":[-119.21561156099995,40.777372264000064]},"properties":{"OBJECTID":15,"FID":14,"NAME":"Center Camp Plaza","TYPE":"CPN"}},{"type":"Feature","id":16,"geometry":{"type":"Point","coordinates":[-119.21228559699995,40.776573248000034]},"properties":{"OBJECTID":16,"FID":15,"NAME":"HEaT","TYPE":"CPN"}},{"type":"Feature","id":17,"geometry":{"type":"Point","coordinates":[-119.21631646699996,40.779303926000068]},"properties":{"OBJECTID":17,"FID":16,"NAME":"Media Mecca","TYPE":"CPN"}},{"type":"Feature","id":18,"geometry":{"type":"Point","coordinates":[-119.21164195199998,40.776349678000031]},"properties":{"OBJECTID":18,"FID":17,"NAME":"Rampart","TYPE":"CPN"}},{"type":"Feature","id":19,"geometry":{"type":"Point","coordinates":[-119.19898126499999,40.776197815000046]},"properties":{"OBJECTID":19,"FID":19,"NAME":"ESD Station 3","TYPE":"CPN"}},{"type":"Feature","id":20,"geometry":{"type":"Point","coordinates":[-119.21678794199994,40.79029558600007]},"properties":{"OBJECTID":20,"FID":20,"NAME":"ESD Station 9","TYPE":"CPN"}},{"type":"Feature","id":21,"geometry":{"type":"Point","coordinates":[-119.21304520599995,40.777864114000067]},"properties":{"OBJECTID":21,"FID":21,"NAME":"Playa Info","TYPE":"CPN"}},{"type":"Feature","id":22,"geometry":{"type":"Point","coordinates":[-119.22540326899997,40.769913047000045]},"properties":{"OBJECTID":22,"FID":23,"NAME":"Greeters","TYPE":"CPN"}},{"type":"Feature","id":23,"geometry":{"type":"Point","coordinates":[-119.22140764699998,40.803520972000058]},"properties":{"OBJECTID":23,"FID":24,"NAME":"Point 2","TYPE":"CPN"}},{"type":"Feature","id":24,"geometry":{"type":"Point","coordinates":[-119.18672255299998,40.799326749000045]},"properties":{"OBJECTID":24,"FID":25,"NAME":"Point 3","TYPE":"CPN"}},{"type":"Feature","id":25,"geometry":{"type":"Point","coordinates":[-119.18123966399997,40.77288403700004]},"properties":{"OBJECTID":25,"FID":26,"NAME":"Point 4","TYPE":"CPN"}},{"type":"Feature","id":26,"geometry":{"type":"Point","coordinates":[-119.21258152999997,40.760788246000061]},"properties":{"OBJECTID":26,"FID":27,"NAME":"Point 5","TYPE":"CPN"}},{"type":"Feature","id":27,"geometry":{"type":"Point","coordinates":[-119.19556497799999,40.773882603000061]},"properties":{"OBJECTID":27,"FID":28,"NAME":"3 & G Plaza","TYPE":"CPN"}},{"type":"Feature","id":28,"geometry":{"type":"Point","coordinates":[-119.22020667399994,40.792610961000037]},"properties":{"OBJECTID":28,"FID":29,"NAME":"9 & G Plaza","TYPE":"CPN"}},{"type":"Feature","id":29,"geometry":{"type":"Point","coordinates":[-119.22020267499994,40.77388092800004]},"properties":{"OBJECTID":29,"FID":30,"NAME":"6 & G Plaza","TYPE":"CPN"}},{"type":"Feature","id":30,"geometry":{"type":"Point","coordinates":[-119.21140017999994,40.776793466000072]},"properties":{"OBJECTID":30,"FID":31,"NAME":"ESD Station 6","TYPE":"CPN"}},{"type":"Feature","id":31,"geometry":{"type":"Point","coordinates":[-119.21561156099995,40.777372264000064]},"properties":{"OBJECTID":31,"FID":32,"NAME":"Center Camp","TYPE":"CPN"}},{"type":"Feature","id":32,"geometry":{"type":"Point","coordinates":[-119.20788409599999,40.783247448000054]},"properties":{"OBJECTID":32,"FID":33,"NAME":"The Man","TYPE":"CPN"}},{"type":"Feature","id":33,"geometry":{"type":"Point","coordinates":[-119.20149963599999,40.788099423000062]},"properties":{"OBJECTID":33,"FID":34,"NAME":"The Temple","TYPE":"CPN"}},{"type":"Feature","id":34,"geometry":{"type":"Point","coordinates":[-119.19861233699999,40.776482660000056]},"properties":{"OBJECTID":34,"FID":36,"NAME":"Ranger Station Berlin","TYPE":"CPN"}},{"type":"Feature","id":35,"geometry":{"type":"Point","coordinates":[-119.21722282099995,40.790062035000062]},"properties":{"OBJECTID":35,"FID":37,"NAME":"Ranger Station Tokyo","TYPE":"CPN"}},{"type":"Feature","id":36,"geometry":{"type":"Point","coordinates":[-119.21637985099994,40.779924922000077]},"properties":{"OBJECTID":36,"FID":38,"NAME":"Ranger HQ","TYPE":"CPN"}},{"type":"Feature","id":37,"geometry":{"type":"Point","coordinates":[-119.21921726299996,40.798106481000048]},"properties":{"OBJECTID":37,"FID":39,"NAME":"Hell Station","TYPE":"CPN"}},{"type":"Feature","id":38,"geometry":{"type":"Point","coordinates":[-119.22083140199999,40.792716950000056]},"properties":{"OBJECTID":38,"FID":40,"NAME":"Ice Nine Arctica","TYPE":"CPN"}},{"type":"Feature","id":39,"geometry":{"type":"Point","coordinates":[-119.21676303799995,40.778277905000039]},"properties":{"OBJECTID":39,"FID":41,"NAME":"Arctica Center Camp","TYPE":"CPN"}},{"type":"Feature","id":40,"geometry":{"type":"Point","coordinates":[-119.19491010999997,40.773763668000072]},"properties":{"OBJECTID":40,"FID":42,"NAME":"Ice Cubed Arctica 3","TYPE":"CPN"}},{"type":"Feature","id":41,"geometry":{"type":"Point","coordinates":[-119.21246267199996,40.778961444000061]},"properties":{"OBJECTID":41,"FID":43,"NAME":"Department of Mutant Vehicles (DMV)","TYPE":"CPN"}},{"type":"Feature","id":42,"geometry":{"type":"Point","coordinates":[-119.20376686899999,40.799203823000028]},"properties":{"OBJECTID":42,"FID":44,"NAME":"Deep-Playa Music Zone (DMZ)","TYPE":"CPN"}},{"type":"Feature","id":43,"geometry":{"type":"Point","coordinates":[-119.23741804699995,40.779710354000031]},"properties":{"OBJECTID":43,"FID":45,"NAME":"Point 1","TYPE":"CPN"}},{"type":"Feature","id":44,"geometry":{"type":"Point","coordinates":[-119.20788344999994,40.774422505000075]},"properties":{"OBJECTID":44,"FID":46,"NAME":"430 & B Plaza","TYPE":"CPN"}},{"type":"Feature","id":45,"geometry":{"type":"Point","coordinates":[-119.21949414699998,40.783246373000054]},"properties":{"OBJECTID":45,"FID":47,"NAME":"730 & B Plaza","TYPE":"CPN"}},{"type":"Feature","id":47,"geometry":{"type":"Point","coordinates":[-119.21096083099997,40.776664573000062]},"properties":{"OBJECTID":47,"FID":90,"NAME":"BLM LE Substation","TYPE":"CPN"}},{"type":"Feature","id":52,"geometry":{"type":"Point","coordinates":[-119.22271946799998,40.773354922000067]},"properties":{"OBJECTID":52,"FID":99,"NAME":"Burner Express Bus Depot","TYPE":"CPN"}},{"type":"Feature","id":54,"geometry":{"type":"Point","coordinates":[-119.20165970799997,40.766051381000068]},"properties":{"OBJECTID":54,"FID":102,"NAME":"Walk-In Camp","TYPE":"CPN"}},{"type":"Feature","id":56,"geometry":{"type":"Point","coordinates":[-119.23567012199999,40.768226895000055]},"properties":{"OBJECTID":56,"FID":110,"NAME":"Box Office","TYPE":"CPN"}},{"type":"Feature","id":57,"geometry":{"type":"Point","coordinates":[-119.23408814999999,40.768725267000036]},"properties":{"OBJECTID":57,"FID":112,"NAME":"Gate Actual","TYPE":"CPN"}},{"type":"Feature","id":58,"geometry":{"type":"Point","coordinates":[-119.23704641499995,40.768406146000075]},"properties":{"OBJECTID":58,"FID":117,"NAME":"Will Call Lot","TYPE":"CPN"}},{"type":"Feature","id":59,"geometry":{"type":"Point","coordinates":[-119.23382482199997,40.768178314000068]},"properties":{"OBJECTID":59,"FID":121,"NAME":"D Lot","TYPE":"CPN"}},{"type":"Feature","id":60,"geometry":{"type":"Point","coordinates":[-119.22793799399994,40.767566913000053]},"properties":{"OBJECTID":60,"FID":133,"NAME":"Census Checkpoint","TYPE":"CPN"}},{"type":"Feature","id":61,"geometry":{"type":"Point","coordinates":[-119.21486065999994,40.779380927000034]},"properties":{"OBJECTID":61,"FID":48,"NAME":"Artery","TYPE":"CPN"}},{"type":"Feature","id":62,"geometry":{"type":"Point","coordinates":[-119.21454512899999,40.773927429000025]},"properties":{"OBJECTID":62,"FID":49,"NAME":"Yellow Bike Project","TYPE":"CPN"}},{"type":"Feature","id":63,"geometry":{"type":"Point","coordinates":[-119.21302995699995,40.776950706000036]},"properties":{"OBJECTID":63,"FID":134,"NAME":"Recycle Camp","TYPE":"CPN"}},{"type":"Feature","id":64,"geometry":{"type":"Point","coordinates":[-119.22397821799996,40.773695632000056]},"properties":{"OBJECTID":64,"FID":135,"NAME":"Arctica Outpost","TYPE":"CPN"}},{"type":"Feature","id":75,"geometry":{"type":"Point","coordinates":[-119.21133013999997,40.791676236000058]},"properties":{"OBJECTID":75,"FID":146,"NAME":"10 & B Plaza","TYPE":"CPN"}},{"type":"Feature","id":76,"geometry":{"type":"Point","coordinates":[-119.19679557199998,40.780627868000067]},"properties":{"OBJECTID":76,"FID":147,"NAME":"2 & B Plaza","TYPE":"CPN"}},{"type":"Feature","id":77,"geometry":{"type":"Point","coordinates":[-119.18433984899997,40.778450237000072]},"properties":{"OBJECTID":77,"FID":148,"NAME":"Deep-Playa Music Zone 2 (DMZ2)","TYPE":"CPN"}}]}