{"type":"FeatureCollection","features":[{"type":"Feature","id":1,"geometry":{"type":"Polygon","coordinates":[[[-119.20665020556336,40.798589204113206],[-119.20629469026294,40.798570301936202],[-119.20593946158786,40.798546616296157],[-119.20558458389678,40.798518151484323],[-119.20523012148475,40.798484912657806],[-119.20463162658388,40.798417761733937],[-119.20421694312547,40.798363033391595],[-119.20380319166865,40.798301655104702],[-119.2030859969428,40.798178981671185],[-119.20267917601329,40.79810008200171],[-119.20227370107713,40.798014533754063],[-119.20186968078289,40.797922359851228],[-119.20146722338933,40.797823584991569],[-119.20066491773512,40.799645574448796],[-119.2011060763072,40.799753530537402],[-119.20154886081366,40.799854611117262],[-119.20199316410572,40.799948791728049],[-119.20243887866708,40.80003604957912],[-119.20288589663993,40.800116363555084],[-119.20333410985103,40.800189714220878],[-119.20378340983794,40.800256083826476],[-119.2042336878752,40.800315456311203],[-119.20468483500069,40.800367817307588],[-119.20513674204199,40.800413154144877],[-119.20558929964275,40.800451455852077],[-119.20604239828924,40.800482713160605],[-119.20649592833676,40.800506918506557],[-119.20665020556336,40.798589204113206]]]},"properties":{"OBJECTID":1,"Shape_Length":4515.394079691052,"Shape_Area":1090588.3192843609}}]}