{"type":"FeatureCollection","features":[{"type":"Feature","id":0,"geometry":{"type":"LineString","coordinates":[[-119.26822859863545,40.748612535823376],[-119.26403386294571,40.746640184629065],[-119.26385025685737,40.74655717200033],[-119.26366296316726,40.746479069910357],[-119.26347220883855,40.74640597299895],[-119.26327822502543,40.746337969840624],[-119.26308124679319,40.746275142837412],[-119.26288151283347,40.746217568118951],[-119.26267926517525,40.746165315450455],[-119.26247474889152,40.746118448148046],[-119.26226821180268,40.746077023002208],[-119.26205990417628,40.746041090208962],[-119.26185007842408,40.74601069330906],[-119.26163898879615,40.745985869135275],[-119.26142689107316,40.745966647767851],[-119.26121404225657,40.745953052497939],[-119.26100070025745,40.745945099799521],[-119.26078712358405,40.745942799309404],[-119.26057357102894,40.745946153815538],[-119.26036030135543,40.745955159253676],[-119.26014757298434,40.745969804712225],[-119.25993564368108,40.745990072445572],[-119.25972477024344,40.746015937895443],[-119.25951520819061,40.746047369720735],[-119.25930721145386,40.746084329835391],[-119.25910103206881,40.74612677345462],[-119.25889691987052,40.746174649149019],[-119.25869512219059,40.746227898906909],[-119.2584958835579,40.746286458204587],[-119.25829944540223,40.746350256084476],[-119.25810604576202,40.746419215240991],[-119.25791591899599,40.746493252114227],[-119.25772929549922,40.746572276991117],[-119.25754640142414,40.746656194114095],[-119.25736745840661,40.746744901797065],[-119.25719268329732,40.74683829254851],[-119.25702228789915,40.746936253201781],[-119.25685647871057,40.747038665052017],[-119.25669545667536,40.74714540400003],[-119.25653941693923,40.747256340702549],[-119.25638854861329,40.747371340728918],[-119.25624303454485,40.747490264723886],[-119.25610305109586,40.747612968576441],[-119.25596876792909,40.747739303594329],[-119.25584034780259,40.747869116684193],[-119.25571794637213,40.748002250536999],[-119.25560171200276,40.748138543818634],[-119.2554917855887,40.748277831365264],[-119.25538830038262,40.748419944383556],[-119.25529138183384,40.748564710654989],[-119.25520114743634,40.748711954744635],[-119.25511770658606,40.748861498213643],[-119.24490481449159,40.768083214958935],[-119.24483135424094,40.768214807698001],[-119.2447519294185,40.768344382219084],[-119.24466663574195,40.768471782310819],[-119.2445755760061,40.768596854382409],[-119.24447885995899,40.768719447648785],[-119.24437660416973,40.768839414312474],[-119.24426893188812,40.768956609741799],[-119.24415597289608,40.76907089264531],[-119.24403786335137,40.769182125242232],[-119.24391474562336,40.769290173428551],[-119.24378676812161,40.769394906938764],[-119.24365408511697,40.769496199503045],[-119.24351685655549,40.769593928999463],[-119.24337524786579,40.769687977601322],[-119.24322942975951,40.769778231919247],[-119.24307957802556,40.769864583137952],[-119.24292587331813,40.769946927147501],[-119.24276850093885,40.770025164668901],[-119.24260765061344,40.770099201373817],[-119.2424435162628,40.77016894799835],[-119.24227629576922,40.77023432045074],[-119.2421061907377,40.770295239912805],[-119.24193340625288,40.770351632934982],[-119.24175815063154,40.770403431524969],[-119.2415806351715,40.770450573229702],[-119.24140107389665,40.770493001210745],[-119.24121968329884,40.770530664312808],[-119.24103668207671,40.770563517125481],[-119.2408522908719,40.770591520038025],[-119.24066673200291,40.770614639287103],[-119.24048022919685,40.770632846997628],[-119.24029300731959,40.770646121216245],[-119.24010529210456,40.770654445937915],[-119.23991730988025,40.770657811125218],[-119.23972928729742,40.770656212720411],[-119.23954145105546,40.770649652650384],[-119.23935402762899,40.770638138824282],[-119.23916724299471,40.770621685124006],[-119.23898132235868,40.770600311387447],[-119.23879648988473,40.770574043384599],[-119.23861296842398,40.770542912786375],[-119.23843097924603,40.770506957126528],[-119.23825074177203,40.770466219756251],[-119.23807247331001,40.770420749791988],[-119.23789638879278,40.770370602056133],[-119.2377227005186,40.77031583701087],[-119.23755161789514,40.770256520685322],[-119.23738334718691,40.770192724595809],[-119.23721809126643,40.770124525659632],[-119.23705604936966,40.770052006102304],[-119.23689741685557,40.769975253358325],[-119.2367423849706,40.769894359965726],[-119.23391006442245,40.768360760505104],[-119.23373585575288,40.76826982373094],[-119.23355763329401,40.768183500068304],[-119.2333756082905,40.768101891828742],[-119.23318999649142,40.768025095734679],[-119.23300101789457,40.767953202804939],[-119.23280889648585,40.7678862982468],[-119.23261385997397,40.767824461355183],[-119.23241613952047,40.767767765418647],[-119.23221596946618,40.767716277632559],[-119.23201358705333,40.76767005901965],[-119.23180923214473,40.767629164357523],[-119.23160314693948,40.767593642113887],[-119.23139557568621,40.767563534389168],[-119.23118676439371,40.767538876866581],[-119.23097696053955,40.767519698769881],[-119.23076641277696,40.767506022828748],[-119.23055537064026,40.76749786525189],[-119.23034408424941,40.767495235707791],[-119.23013280401369,40.767498137313304],[-119.2299217803351,40.767506566629947],[-119.22971126331186,40.767520513667947],[-119.22950150244206,40.767539961898095],[-119.22929274632831,40.767564888271323],[-119.22908524238308,40.767595263246001],[-119.22887923653587,40.767631050822899],[-119.22867497294172,40.767672208587882],[-119.22847269369213,40.767718687762063],[-119.22827263852825,40.767770433259678],[-119.22807504455696,40.767827383753222],[-119.22788014596982,40.767889471746209],[-119.2276881737659,40.767956623652999],[-119.22749935547785,40.768028759886064],[-119.22731391490255,40.768105794950195],[-119.22713207183587,40.768187637543768],[-119.22695404181231,40.768274190666958],[-119.22678003584952,40.768365351736598],[-119.2266102601983,40.768461012707661],[-119.22644491609829,40.768561060201343],[-119.22628419953941,40.768665375639252],[-119.22612830102952,40.768773835384025],[-119.22597740536872,40.768886310885662],[-119.22460814612477,40.769942665625123]]},"properties":{"FID":0}},{"type":"Feature","id":1,"geometry":{"type":"LineString","coordinates":[[-119.27356499878745,40.7514439990886],[-119.26384406008303,40.746873653268203],[-119.26367125395033,40.746795523465494],[-119.26349497708439,40.746722015357705],[-119.26331544309976,40.746653218018849],[-119.26313286955573,40.746589214814378],[-119.26294747769289,40.746530083300236],[-119.26275949216505,40.746475895128931],[-119.26256914076711,40.746426715962791],[-119.26237665415933,40.746382605394373],[-119.26218226558773,40.746343616874334],[-119.2619862106018,40.746309797646703],[-119.2617887267691,40.74628118869164],[-119.26159005338758,40.746257824675816],[-119.26139043119585,40.746239733910443],[-119.26119010208154,40.746226938316937],[-119.2609893087884,40.746219453400464],[-119.26078829462233,40.746217288231051],[-119.26058730315677,40.74622044543267],[-119.26038657793771,40.746228921180055],[-119.26018636218872,40.746242705203301],[-119.25998689851642,40.746261780800289],[-119.25978842861674,40.746286124857001],[-119.25959119298219,40.746315707875397],[-119.25939543061045,40.746350494009199],[-119.25920137871522,40.746390441107287],[-119.25900927243875,40.746435500764761],[-119.25881934456702,40.746485618381506],[-119.25863182524796,40.746540733228386],[-119.25844694171255,40.746600778520737],[-119.25826491799975,40.746665681499273],[-119.25808597468492,40.746735363518191],[-119.25791032861284,40.746809740140449],[-119.25773819263497,40.746888721239955],[-119.25756977535154,40.746972211110801],[-119.2574052808589,40.747060108583135],[-119.25724490850229,40.747152307145711],[-119.25708885263421,40.747248695074873],[-119.25693730237906,40.747349155569893],[-119.25679044140388,40.747453566894457],[-119.25664844769578,40.747561802524061],[-119.25651149334635,40.747673731299329],[-119.25637974434296,40.747789217584867],[-119.25625336036764,40.747908121433532],[-119.25613249460349,40.748030298755999],[-119.25601729354898,40.748155601495284],[-119.25590789684033,40.748283877806074],[-119.25580443708226,40.748414972238741],[-119.25570703968704,40.748548725927613],[-119.25561582272258,40.748684976783451],[-119.25553089676896,40.748823559689811],[-119.2554523647845,40.74896430670308],[-119.24523955416775,40.768186052097036],[-119.24516119714642,40.768326417903971],[-119.24507647787296,40.768464630959798],[-119.24498549844368,40.768600524637932],[-119.24488836850402,40.768733935107008],[-119.24478520511639,40.768864701528365],[-119.24467613261929,40.76899266625005],[-119.24456128247748,40.769117674996934],[-119.24444079312363,40.769239577056773],[-119.24431480979148,40.769358225461929],[-119.24418348434085,40.769473477166677],[-119.24404697507471,40.769585193219697],[-119.2439054465482,40.769693238931666],[-119.24375906937048,40.769797484037696],[-119.2436080199989,40.769897802854473],[-119.24345248052639,40.769994074431871],[-119.2432926384619,40.770086182698776],[-119.24312868650422,40.770174016603136],[-119.24296082230978,40.770257470245923],[-119.2427892482542,40.770336443008887],[-119.24261417118828,40.770410839675861],[-119.24243580218848,40.770480570547676],[-119.24225435630244,40.770545551550356],[-119.24207005228959,40.77060570433656],[-119.24188311235721,40.770660956380013],[-119.24169376189261,40.770711241063125],[-119.24150222919091,40.770756497757255],[-119.24130874518011,40.770796671895894],[-119.24111354314211,40.770831715040465],[-119.24091685843158,40.770861584938835],[-119.24071892819182,40.7708862455762],[-119.24051999106895,40.770905667218571],[-119.24032028692369,40.770919826448676],[-119.24012005654222,40.770928706194155],[-119.23991954134567,40.770932295748203],[-119.23971898309868,40.770930590782484],[-119.23951862361798,40.770923593352336],[-119.23931870448048,40.770911311894281],[-119.23911946673191,40.770893761215909],[-119.23892115059596,40.77087096247795],[-119.23872399518449,40.770842943168773],[-119.23852823820914,40.770809737071247],[-119.23833411569437,40.770771384221945],[-119.23814186169297,40.770727930862869],[-119.23795170800351,40.77067942938568],[-119.23776388389082,40.770625938268452],[-119.23757861580943,40.770567522005166],[-119.23739612713035,40.770504251027909],[-119.23721663787168,40.770436201621862],[-119.23704036443328,40.770363455833348],[-119.23686751933562,40.7702861013708],[-119.23669831096358,40.770204231498965],[-119.23653294331513,40.770117944926454],[-119.23370061795296,40.768584340420134],[-119.23353665655058,40.768498752583263],[-119.23336891741252,40.768417506507085],[-119.23319759935897,40.768340698486128],[-119.23302290544977,40.768268419554545],[-119.23284504274382,40.768200755378288],[-119.2326642220538,40.76813778615363],[-119.23248065769621,40.768079586512137],[-119.23229456723777,40.768026225432294],[-119.23210617123739,40.767977766157777],[-119.231915692985,40.767934266122545],[-119.2317233582371,40.767895776882796],[-119.23152939494916,40.767862344055906],[-119.23133403300584,40.767834007266387],[-119.23113750394833,40.76781080009895],[-119.23094004070045,40.767792750058724],[-119.23074187729254,40.767779878538668],[-119.23054324858428,40.767772200794255],[-119.23034438998656,40.767769725925341],[-119.23014553718255,40.767772456865472],[-119.22994692584864,40.767780390378341],[-119.22974879137514,40.767793517061619],[-119.22955136858771,40.76781182135813],[-119.22935489146894,40.767835281574264],[-119.22915959288139,40.767863869905632],[-119.22896570429164,40.767897552470068],[-119.22877345549617,40.767936289347702],[-119.22858307434913,40.767980034628252],[-119.22839478649252,40.768028736465475],[-119.22820881508873,40.768082337138452],[-119.2280253805563,40.768140773120074],[-119.22784470030874,40.768203975152232],[-119.22766698849695,40.768271868327872],[-119.22749245575559,40.768344372179733],[-119.22732130895341,40.768421400775651],[-119.22715375094819,40.768502862820363],[-119.22698998034646,40.768588661763658],[-119.22683019126792,40.768678695914772],[-119.22667457311569,40.768772858562784],[-119.22652331035168,40.768871038103121],[-119.22637658227799,40.76897311816974],[-119.22623456282444,40.769078977772956],[-119.22486530377731,40.770135335527677]]},"properties":{"FID":1}},{"type":"Feature","id":2,"geometry":{"type":"LineString","coordinates":[[-119.26784901009786,40.74907948628384],[-119.26365425589962,40.747107121596358],[-119.26349224977291,40.747033874653397],[-119.26332698978759,40.746964960560099],[-119.26315867620936,40.74690046282452],[-119.26298751300239,40.746840459602872],[-119.26281370758214,40.746785023604929],[-119.26263747056419,40.746734222005905],[-119.26245901550918,40.746688116365114],[-119.26227855866404,40.746646762551457],[-119.26209631870007,40.746610210675648],[-119.26191251644825,40.746578505029653],[-119.2617273746315,40.74655168403293],[-119.26154111759523,40.746529780185995],[-119.26135397103545,40.746512820030993],[-119.26116616172541,40.746500824119579],[-119.26097791724116,40.74649380698802],[-119.26078946568572,40.746491777139596],[-119.2606010354129,40.746494737034283],[-119.26041285475085,40.746502683085815],[-119.26022515172534,40.746515605665941],[-119.26003815378387,40.746533489116196],[-119.25985208751989,40.746556311766753],[-119.2596671783987,40.746584045962763],[-119.25948365048414,40.746616658097757],[-119.25930172616737,40.74665410865444],[-119.25912162589746,40.746696352252428],[-119.25894356791437,40.746743337703336],[-119.25876776798469,40.746795008072681],[-119.25859443914023,40.746851300748894],[-119.25842379142006,40.74691214751909],[-119.25825603161597,40.746977474651729],[-119.25809136302212,40.74704720298589],[-119.25792998518865,40.747121248027199],[-119.25777209368003,40.74719952005006],[-119.25761787983809,40.747281924206469],[-119.25746753055016,40.74736836064077],[-119.25732122802278,40.747458724610695],[-119.25717914956073,40.747552906614139],[-119.25704146735235,40.747650792521938],[-119.25690834826084,40.747752263715938],[-119.25677995362194,40.747857197232847],[-119.25665643904851,40.747965465913026],[-119.25653795424194,40.748076938554675],[-119.25642464281047,40.748191480072663],[-119.25631664209544,40.74830895166221],[-119.25621408300444,40.748429210967053],[-119.25611708985281,40.748552112251858],[-119.25602578021278,40.748677506578829],[-119.25594026477096,40.748805241988123],[-119.25586064719396,40.748935163681963],[-119.25578702400274,40.74906711421216],[-119.24557429486515,40.768288888254347],[-119.2454910411455,40.768438027156449],[-119.2454010274882,40.768584878776174],[-119.24530436236779,40.768729266071588],[-119.24520116227998,40.768871014970564],[-119.24509155160135,40.769009954580724],[-119.24497566243953,40.769145917395463],[-119.24485363447401,40.769278739496031],[-119.24472561478805,40.769408260749181],[-119.24459175769127,40.769534325000301],[-119.2444522245338,40.769656780261734],[-119.24430718351189,40.769775478896165],[-119.24415680946504,40.769890277794573],[-119.24400128366536,40.770001038548955],[-119.24384079359908,40.770107627619176],[-119.24367553274045,40.770209916494174],[-119.24350570031852,40.77030778184681],[-119.2433315010769,40.770401105682751],[-119.24315314502689,40.77048977548278],[-119.24297084719427,40.770573684338501],[-119.24278482735988,40.770652731081341],[-119.24259530979469,40.770726820404583],[-119.24240252298927,40.770795862978289],[-119.24220669937807,40.770859775557142],[-119.24200807505932,40.770918481080862],[-119.24180688951003,40.770971908767102],[-119.24160338529711,40.771019994196948],[-119.24139780778501,40.77106267939255],[-119.24119040483933,40.771099912887088],[-119.24098142652818,40.771131649786923],[-119.24077112482027,40.77115785182567],[-119.240559753281,40.771178487410488],[-119.24034756676653,40.771193531660018],[-119.2401348211163,40.771202966434586],[-119.23992177284444,40.771206780358],[-119.23970867883014,40.771204968831285],[-119.23949579600787,40.771197534038244],[-119.23928338105735,40.771184484942808],[-119.23907169009381,40.77116583727824],[-119.23886097835906,40.771141613528158],[-119.2386514999135,40.771111842899401],[-119.23844350732968,40.771076561286804],[-119.23823725138752,40.771035811229865],[-119.23803298077171,40.77098964186149],[-119.23783094177189,40.770938108848597],[-119.23763137798529,40.770881274325127],[-119.23743453002307,40.770819206816931],[-119.23724063521993,40.770751981159222],[-119.23704992734797,40.770679678406161],[-119.23686263633454,40.770602385733227],[-119.23667898798499,40.77052019633193],[-119.23649920371039,40.770433209297472],[-119.23632350026038,40.770341529509132],[-119.23349117008428,40.768807919957069],[-119.23333745598678,40.768727681093061],[-119.2331802002137,40.768651512637852],[-119.23301958916046,40.768579504868754],[-119.23285581319759,40.768511743131512],[-119.23268906644469,40.768448307739035],[-119.23251954654089,40.76838927387643],[-119.23234745441036,40.768334711511827],[-119.23217299402442,40.768284685313482],[-119.23199637215983,40.768239254573231],[-119.23181779815383,40.768198473136209],[-119.23163748365616,40.768162389337085],[-119.23145564237829,40.768131045942802],[-119.23127248984031,40.768104480101925],[-119.23108824311558,40.768082723300552],[-119.2309031205736,40.768065801325157],[-119.23071734162137,40.768053734231941],[-119.23053112644341,40.768046536323077],[-119.23034469574104,40.768044216129852],[-119.23015827047091,40.76804677640245],[-119.22997207158322,40.768054214106741],[-119.22978631976007,40.768066520427894],[-119.22960123515402,40.768083680780776],[-119.22941703712729,40.768105674827282],[-119.229233943992,40.768132476500362],[-119.22905217275137,40.768164054034941],[-119.22887193884293,40.768200370005509],[-119.22869345588309,40.768241381370515],[-119.22851693541415,40.768287039523301],[-119.2283425866538,40.768337290349649],[-119.22817061624706,40.768392074291981],[-119.22800122802163,40.768451326419807],[-119.22783462274631,40.768514976506737],[-119.22767099789328,40.768582949113572],[-119.22751054740391,40.768655163677764],[-119.2273534614591,40.768731534608783],[-119.22719992625386,40.768811971389567],[-119.22705012377681,40.768896378683714],[-119.22690423159433,40.768984656448438],[-119.22676242264025,40.769076700053127],[-119.22662486501082,40.769172400403235],[-119.22649172176554,40.769271644069597],[-119.22512246291529,40.770328004839612]]},"properties":{"FID":2}}]}