{"type":"FeatureCollection","features":[{"type":"Feature","id":1,"geometry":{"type":"Polygon","coordinates":[[[-119.19556724238139,40.774157767636069],[-119.19560262763906,40.774156449878447],[-119.19563767260092,40.774152501749164],[-119.19567203976079,40.774145961271337],[-119.19570539814046,40.774136891434061],[-119.19573742647725,40.774125379585811],[-119.19576781631808,40.774111536593246],[-119.19579627499023,40.774095495773324],[-119.19582252841991,40.774077411609404],[-119.19584632377182,40.774057458263449],[-119.19586743188407,40.774035827898622],[-119.1958856494753,40.774012728828723],[-119.19590080110207,40.773988383511764],[-119.19591274084861,40.773963026407714],[-119.19592135373186,40.773936901720297],[-119.19592655680877,40.773910261045373],[-119.19592829997485,40.773883360947544],[-119.19592656644667,40.773856460489675],[-119.19592137292315,40.773829818737745],[-119.19591276942484,40.773803692265872],[-119.1959008388118,40.773778332685588],[-119.19588569598564,40.773753984222459],[-119.19586748678266,40.773730881364315],[-119.19584638656946,40.773709246602927],[-119.1958225985538,40.773689288291308],[-119.19579635182772,40.773671198637409],[-119.19576789916114,40.773655151852871],[-119.19573751456757,40.773641302475532],[-119.19570549066529,40.773629783881063],[-119.19567213585927,40.773620706998578],[-119.19563777137139,40.773614159242442],[-119.19560272814665,40.773610203670394],[-119.19556734366648,40.773608878376294],[-119.19553195869865,40.773610196123251],[-119.19549691401554,40.773614144220836],[-119.19546254711254,40.773620684647163],[-119.19542918895803,40.77362975441509],[-119.19539716080612,40.773641266178807],[-119.19536677110264,40.773655109074902],[-119.19533831251518,40.773671149790161],[-119.19531205911417,40.773689233845211],[-119.19528826373387,40.773709187082282],[-119.19526715553719,40.773730817342397],[-119.19524893780881,40.773753916315769],[-119.19523378599742,40.773778261548109],[-119.19522184602583,40.773803618582697],[-119.19521323288583,40.773829743218442],[-119.19520802953028,40.773856383861585],[-119.19520628607442,40.773883283948592],[-119.19520801931283,40.773910184417126],[-119.1952132125576,40.773936826200739],[-119.19522181579902,40.773962952724105],[-119.19523374618687,40.773988312373767],[-119.19524888882822,40.774012660921407],[-119.19526709789379,40.774035763876007],[-119.19528819802234,40.77405739874208],[-119.19531198600927,40.774077357162554],[-119.19533823276376,40.774095446925344],[-119.19536668551473,40.774111493814601],[-119.19539707024546,40.774125343288475],[-119.19542909433241,40.774136861967563],[-119.19546244936343,40.774145938919503],[-119.1954968141081,40.774152486727282],[-119.19553185761146,40.774156442331154],[-119.19556724238139,40.774157767636069]]]},"properties":{"OBJECTID":1,"name":"3:00 & G Plaza","FID":1}},{"type":"Feature","id":2,"geometry":{"type":"Polygon","coordinates":[[[-119.20788409440638,40.770279943773204],[-119.20791947736831,40.770278622237903],[-119.2079545195684,40.770274670365147],[-119.20798888352715,40.77026812621407],[-119.20802223829708,40.770259052809152],[-119.20805426265036,40.770247537533301],[-119.20808464817223,40.770233691286087],[-119.20811310223161,40.770217647415841],[-119.20813935079903,40.770199560435316],[-119.20816314108612,40.770179604533581],[-119.2081842439798,40.770157971898463],[-119.20820245624884,40.770134870865547],[-119.20821760250114,40.770110523911796],[-119.20822953687271,40.770085165512945],[-119.20823814443219,40.77005903988519],[-119.20824334228784,40.77003239863339],[-119.20824508038544,40.77000549832777],[-119.20824334199033,40.769978598033184],[-119.20823814384843,40.769951956813976],[-119.20822953602463,40.769925831239227],[-119.20821760142074,40.769900472911765],[-119.20820245497671,40.769876126045119],[-119.20818424256379,40.769853025111694],[-119.20816313957938,40.769831392584756],[-119.20813934925802,40.769811436795862],[-119.20811310071393,40.769793349928577],[-119.20808464673443,40.769777306167718],[-119.20805426134582,40.769763460022027],[-119.20802223717396,40.769751944836045],[-119.20798888262647,40.769742871506097],[-119.20795451892262,40.769736327412289],[-119.207919477,40.769732375577107],[-119.20788409432745,40.769731054058404],[-119.2078487116553,40.76973237558299],[-119.2078136697338,40.769736327424006],[-119.20777930603187,40.769742871523512],[-119.20774595148696,40.769751944859003],[-119.20771392731841,40.769763460050321],[-119.20768354193378,40.76977730620105],[-119.20765508795893,40.769793349966626],[-119.20762883942002,40.769811436838289],[-119.20760504910442,40.769831392631154],[-119.20758394612622,40.769853025161595],[-119.20756573371995,40.769876126098055],[-119.2075505872829,40.769900472967194],[-119.20753865268631,40.769925831296668],[-119.20753004487001,40.769951956872838],[-119.20752484673578,40.769978598092905],[-119.20752310834841,40.770005498387789],[-119.20752484645377,40.770032398693111],[-119.20753004431708,40.770059039944059],[-119.20753865188406,40.770085165570379],[-119.20755058626291,40.770110523967233],[-119.20756573252223,40.770134870918461],[-119.20758394479792,40.770157971948358],[-119.20760504769783,40.770179604579958],[-119.20762883799061,40.770199560477742],[-119.20765508656328,40.770217647453912],[-119.20768354062723,40.770233691319426],[-119.20771392615312,40.770247537561595],[-119.20774595050969,40.770259052832124],[-119.20777930528224,40.770268126231478],[-119.20781366924287,40.770274670376857],[-119.20784871144409,40.770278622243779],[-119.20788409440638,40.770279943773204]]]},"properties":{"OBJECTID":2,"name":"4:30 & G Plaza","FID":3}},{"type":"Feature","id":3,"geometry":{"type":"Polygon","coordinates":[[[-119.22020094754606,40.774157765588264],[-119.22023633231343,40.774156440277551],[-119.22027137581351,40.774152484668086],[-119.22030574055417,40.774145936855007],[-119.22033909558053,40.774136859898071],[-119.22037111966216,40.774125341214379],[-119.22040150438704,40.774111491736285],[-119.22042995713163,40.774095444843297],[-119.22045620387929,40.77407735507726],[-119.22047999185902,40.774057396654051],[-119.22050109198007,40.77403576178579],[-119.2205193010379,40.774012658829591],[-119.22053444367128,40.773988310280913],[-119.22054637405108,40.773962950630846],[-119.22055497728445,40.773936824107679],[-119.22056017052125,40.773910182324819],[-119.2205619037518,40.773883281857671],[-119.22056016028831,40.773856381772603],[-119.22055495692541,40.773829741131955],[-119.22054634377841,40.773803616499258],[-119.22053440380029,40.773778259468216],[-119.22051925198281,40.77375391423989],[-119.22050103424891,40.773730815270959],[-119.22047992604729,40.77370918501569],[-119.22045613066274,40.773689231783813],[-119.22042987725813,40.773671147734241],[-119.22040141866778,40.773655107024709],[-119.22037102896221,40.773641264134511],[-119.22033900080893,40.773629752376841],[-119.22030564265391,40.773620682615011],[-119.22027127575116,40.773614142194802],[-119.22023623106905,40.773610194103298],[-119.220200846103,40.773608876362289],[-119.2201654616254,40.773610201662201],[-119.22013041840397,40.773614157239855],[-119.22009605392006,40.773620705001292],[-119.22006269911874,40.773629781888744],[-119.22003067522174,40.773641300487853],[-119.220000290634,40.773655149869406],[-119.2199718379738,40.773671196657666],[-119.21994559125456,40.773689286314834],[-119.21992180324611,40.77370924462916],[-119.21990070304044,40.773730879392744],[-119.21988249384523,40.773753982252487],[-119.21986735102698,40.773778330716631],[-119.21985542042198,40.773803690297342],[-119.21984681693172,40.773829816769023],[-119.21984162341619,40.773856458520186],[-119.21983988989588,40.77388335897669],[-119.21984163306958,40.773910259072544],[-119.21984683615382,40.773936899745024],[-119.21985544904406,40.773963024429371],[-119.21986738879716,40.773988381529882],[-119.21988254043001,40.774012726842813],[-119.21990075802674,40.774035825908264],[-119.21992186614398,40.774057456268224],[-119.21994566150011,40.774077409609006],[-119.2199719149334,40.774095493767462],[-119.22000037360843,40.774111534581671],[-119.22003076345136,40.774125377568332],[-119.2200627917895,40.774136889410521],[-119.22009615016972,40.7741459592417],[-119.22013051732937,40.774152499713402],[-119.22016556229019,40.77415644783661],[-119.22020094754606,40.774157765588264]]]},"properties":{"OBJECTID":3,"name":"6:00 & G Plaza","FID":4}},{"type":"Feature","id":4,"geometry":{"type":"Polygon","coordinates":[[[-119.22530520208311,40.7835205760165],[-119.22534059171798,40.783519249141868],[-119.22537563983614,40.783515291987825],[-119.22541000890105,40.783508742664417],[-119.22544336791611,40.783499664245888],[-119.22547539561256,40.783488144163456],[-119.22550578354348,40.783474293362978],[-119.22553423905455,40.783458245236638],[-119.22556048810239,40.783440154338194],[-119.22558427789394,40.783420194894425],[-119.22560537932092,40.783398559127249],[-119.22562358916623,40.783375455402478],[-119.22563873206114,40.783351106222973],[-119.22565066217392,40.783325746085865],[-119.22565926461431,40.783299619224138],[-119.22566445653983,40.783272977254491],[-119.22566618795341,40.783246076754097],[-119.22566444218472,40.783219176789679],[-119.22565923605072,40.783192536422398],[-119.22565061969328,40.783166412213113],[-119.22563867609635,40.783141055751479],[-119.22562352028655,40.783116711233141],[-119.22560529822526,40.783093613107809],[-119.22558418540285,40.783071983821749],[-119.2255603851486,40.78305203167524],[-119.22553412667229,40.783033948816836],[-119.2255056628571,40.783017909392761],[-119.22547526782385,40.783004067869925],[-119.22544323429138,40.782992557548354],[-119.22540987075737,40.782983489277555],[-119.22537549852774,40.782976950388928],[-119.22534044862213,40.782973003854778],[-119.22530505858622,40.782971687681972],[-119.2252696692413,40.782973014545775],[-119.22523462140191,40.782976971667956],[-119.22520025259384,40.782983520939695],[-119.22516689380386,40.782992599288683],[-119.22513486629209,40.783004119286467],[-119.22510447849831,40.783017969990368],[-119.22507602307162,40.783034018011939],[-119.22504977405215,40.783052108801471],[-119.22502598423186,40.783072068136327],[-119.22500488272013,40.783093703798798],[-119.2249866727373,40.783116807427099],[-119.22497152965741,40.783141156522071],[-119.22495959931931,40.78316651658983],[-119.22495099662187,40.783192643400056],[-119.22494580441749,40.783219285338042],[-119.22494407271397,40.783246185827792],[-119.22494581819271,40.783273085803046],[-119.224951024048,40.783299726202202],[-119.22495964014857,40.783325850463157],[-119.22497158352041,40.783351206994297],[-119.22498673914552,40.783375551597324],[-119.22500496106966,40.783398649819205],[-119.22502607380768,40.783420279210027],[-119.2250498740336,40.783440231465455],[-119.2250761325386,40.783458314432778],[-119.22510459643857,40.783474353961573],[-119.22513499160932,40.78348819558088],[-119.2251670253268,40.783499705986962],[-119.22520038908613,40.78350877432711],[-119.22523476157276,40.783515313267245],[-119.22526981175727,40.783519259833064],[-119.22530520208311,40.7835205760165]]]},"properties":{"OBJECTID":4,"name":"7:30 & G Plaza","FID":5}},{"type":"Feature","id":5,"geometry":{"type":"Polygon","coordinates":[[[-119.22020441024736,40.792884687040072],[-119.22023980495472,40.792883361731171],[-119.22027485829858,40.79287940613208],[-119.22030923269209,40.792872858337901],[-119.22034259708728,40.792863781408144],[-119.22037463016356,40.792852262759645],[-119.22040502342227,40.792838413324489],[-119.22043348415774,40.792822366481708],[-119.22045973827628,40.792804276772678],[-119.22048353293594,40.792784318412728],[-119.22050463898159,40.792762683613397],[-119.22052285315169,40.792739580731102],[-119.22053800003586,40.792715232260626],[-119.22054993376391,40.792689872692257],[-119.22055853941077,40.79266374625351],[-119.22056373410308,40.792637104557016],[-119.22056546781714,40.792610204177329],[-119.22056372386048,40.792583304179978],[-119.22055851903258,40.792556663626456],[-119.22054990346274,40.792530539079415],[-119.22053796012734,40.792505182131798],[-119.22052280405047,40.792480836983856],[-119.22050458119608,40.792457738091457],[-119.22048346706225,40.792436107908131],[-119.22045966499077,40.792416154742931],[-119.22043340420906,40.792398070754125],[-119.22040493762239,40.792382030098857],[-119.22037453937827,40.792368187255889],[-119.2203425022265,40.792356675538009],[-119.22030913469969,40.792347605808096],[-119.2202747581421,40.792341065411613],[-119.22023970361505,40.792337117335421],[-119.22020430870882,40.792335799601219],[-119.22016891429151,40.792337124899319],[-119.22013386122653,40.792341080466521],[-119.22009948709004,40.792347628209058],[-119.22006612292006,40.792356705069302],[-119.22003409002858,40.792368223633126],[-119.22000369690714,40.792382072971691],[-119.21997523625619,40.792398119709695],[-119.21994898216609,40.792416209309756],[-119.21992518747771,40.792436167560751],[-119.21990408134728,40.792457802255349],[-119.21988586703965,40.792480905041124],[-119.21987071997049,40.792505253427024],[-119.21985878601706,40.792530612925994],[-119.21985018011306,40.792556739313184],[-119.21984498514178,40.792583380977973],[-119.21984325113762,40.792610281347002],[-119.21984499480421,40.792637181355168],[-119.21985019935323,40.792663821940543],[-119.21985881466607,40.792689946539234],[-119.21987075777622,40.792715303556363],[-119.21988591366829,40.792739648789002],[-119.21990413638538,40.792762747777985],[-119.21992525043476,40.792784378066067],[-119.21994905247779,40.792804331340257],[-119.21997531328822,40.792822415437996],[-119.22000377995961,40.792838456197998],[-119.22003417834128,40.792852299137493],[-119.22006621567806,40.792863810939963],[-119.22009958343025,40.792872880739282],[-119.22013396024501,40.792879421187287],[-119.22016901505104,40.79288336929519],[-119.22020441024736,40.792884687040072]]]},"properties":{"OBJECTID":5,"name":"9:00 & G Plaza","FID":9}},{"type":"Feature","id":6,"geometry":{"type":"Polygon","coordinates":[[[-119.21609221640909,40.789760103879289],[-119.2161276130917,40.789758779698268],[-119.21616266855483,40.789754824949462],[-119.21619704519124,40.789748277719724],[-119.21623041193139,40.789739201063199],[-119.21626244743213,40.789727682394059],[-119.21629284317136,40.789713832644587],[-119.21632130641952,40.789697785196843],[-119.2163475630588,40.789679694598014],[-119.21637136022296,40.789659735072043],[-119.21639246873276,40.789638098841657],[-119.21641068530292,40.789614994277073],[-119.21642583449982,40.789590643889248],[-119.21643777043117,40.789565282186999],[-119.21644637815058,40.789539153418332],[-119.2164515747648,40.789512509218341],[-119.21645331023157,40.789485606185686],[-119.21645156784155,40.789458703411448],[-119.21644636437914,40.789432059983845],[-119.21643774996052,40.789405932493253],[-119.21642580755089,40.789380572560908],[-119.21641065216552,40.789356224415855],[-119.21639242976168,40.789333122542764],[-119.21637131583306,40.789311489423945],[-119.21634751371955,40.789291533396671],[-119.21632125264891,40.789273446646803],[-119.21629278552923,40.789257403358057],[-119.21626238651315,40.789243558034549],[-119.2162303483579,40.789232044012962],[-119.21619697960575,40.789222972178386],[-119.21616260161277,40.789216429896527],[-119.2161275454541,40.789212480172431],[-119.21609214873571,40.789211161043589],[-119.21605675234321,40.789212485213831],[-119.21602169715899,40.789216439930804],[-119.21598732077962,40.789222987108886],[-119.21595395426473,40.78923206369592],[-119.21592191894888,40.789243582280392],[-119.21589152334698,40.789257431933272],[-119.21586306018331,40.789273479276225],[-119.21583680357251,40.789291569766092],[-119.21581300637968,40.789311529183109],[-119.21579189778518,40.789333165308719],[-119.21577368107755,40.789356269776775],[-119.21575853169564,40.789380620079974],[-119.21574659553895,40.789405981712832],[-119.21573798756238,40.789432110429921],[-119.21573279066918,40.789458754598172],[-119.21573105491233,40.789485657620155],[-119.21573279701225,40.789512560405178],[-119.21573800019574,40.789539203864585],[-119.21574661435737,40.789565331406827],[-119.21575855654169,40.789590691408669],[-119.21577371174223,40.789615039638413],[-119.21579193400872,40.78963814160808],[-119.21581304785283,40.789659774831676],[-119.21583684993789,40.789679730967926],[-119.21586311103715,40.789697817826749],[-119.21589157824155,40.789713861220264],[-119.21592197739508,40.789727706640292],[-119.21595401573535,40.78973922074649],[-119.21598738471289,40.789748292650501],[-119.21602176296301,40.789754834983924],[-119.21605681940062,40.789758784739774],[-119.21609221640909,40.789760103879289]]]},"properties":{"OBJECTID":6,"name":"9:00 & B Plaza","FID":7}},{"type":"Feature","id":7,"geometry":{"type":"Polygon","coordinates":[[[-119.21949187284434,40.783521334700943],[-119.2195272661491,40.783520009476021],[-119.21956231813222,40.783516053690363],[-119.21959669121996,40.783509505440819],[-119.21963005437692,40.783500427791353],[-119.21966208629453,40.783488908165651],[-119.21969247848513,40.783475057505271],[-119.2197209382534,40.783459009201003],[-119.219747191515,40.783440917808306],[-119.21977098543624,40.783420957558768],[-119.21979209086909,40.783399320682051],[-119.21981030455785,40.783376215554654],[-119.21982545109681,40.783351864692911],[-119.21983738461911,40.783326502610187],[-119.21984599020169,40.783300373558212],[-119.2198511849718,40.783273729174773],[-119.21985291890493,40.783246826060285],[-119.21985117530656,40.783219923306604],[-119.2198459709727,40.783193280001832],[-119.21983735602791,40.783167152735047],[-119.21982541344252,40.783141793125431],[-119.21981025823338,40.783117445398823],[-119.21979203635614,40.783094344035995],[-119.21977092329936,40.78307271151423],[-119.21974712239462,40.78305275616507],[-119.219720862858,40.783034670167872],[-119.21969239758276,40.783018627699079],[-119.21966200070386,40.783004783254967],[-119.21962996495792,40.782993270163679],[-119.21959659886393,40.782984199301367],[-119.21956222375249,40.782977658024407],[-119.21952717067093,40.782973709328118],[-119.21949177719557,40.782972391240165],[-119.2194563841808,40.782973716454279],[-119.21942133247647,40.782977672208091],[-119.21938695964569,40.782984220405957],[-119.21935359671386,40.782993297985939],[-119.21932156498106,40.783004817527001],[-119.21929117292773,40.783018668090797],[-119.21926271324391,40.783034716290288],[-119.21923646001075,40.783052807574038],[-119.21921266606083,40.78307276771465],[-119.21919156054327,40.783094404486611],[-119.21917334671697,40.783117509517524],[-119.21915819999306,40.783141860294684],[-119.21914626624542,40.783167222308002],[-119.21913766040578,40.783193351308448],[-119.21913246535682,40.783219995660197],[-119.21913073113365,40.783246898764013],[-119.21913247444201,40.783273801528495],[-119.21913767849711,40.783300444865105],[-119.21914629318495,40.783326572183547],[-119.21915823554515,40.783351931862647],[-119.21917339056952,40.783376279673917],[-119.21919161230952,40.78339938113335],[-119.21921272528181,40.78342101375987],[-119.21923652615811,40.78344096921797],[-119.21926278572346,40.783459055324109],[-119.2192912510834,40.783475097897615],[-119.21932164809976,40.783488942438247],[-119.21935368403069,40.783500455614103],[-119.21938705034999,40.783509526545792],[-119.21942142571851,40.783516067874295],[-119.21945647907899,40.783520016602296],[-119.21949187284434,40.783521334700943]]]},"properties":{"OBJECTID":7,"name":"7:30 & B Plaza","FID":6}},{"type":"Feature","id":8,"geometry":{"type":"Polygon","coordinates":[[[-119.2078840950419,40.774698741301293],[-119.20791948389295,40.774697419634613],[-119.20795453192547,40.774693467368962],[-119.20798890160371,40.774686922567312],[-119.20802226192519,40.774677848260396],[-119.20805429160858,40.774666331839747],[-119.2080846821878,40.774652484216013],[-119.208113140983,40.774636438750804],[-119.20813939391924,40.774618349972194],[-119.20816318816594,40.774598392086574],[-119.20818429457191,40.774576757300878],[-119.20820250987215,40.774553653971431],[-119.20821765864535,40.774529304597287],[-119.20822959500322,40.774503943677473],[-119.20823820399532,40.774477815452499],[-119.20824340271602,40.774451171552201],[-119.20824514110288,40.774424268572353],[-119.20824340241845,40.774397365603541],[-119.2082382034113,40.77437072173587],[-119.20822959415482,40.774344593563924],[-119.2082176575645,40.77431923271552],[-119.2082025085995,40.774294883428482],[-119.2081842931553,40.774271780198568],[-119.20816318665854,40.774250145521094],[-119.20813939237756,40.774230187748351],[-119.20811313946469,40.774212099082995],[-119.20808468074941,40.774196053727231],[-119.20805429030348,40.774182206205076],[-119.2080222608016,40.77417068987436],[-119.20798890070265,40.774161615642406],[-119.20795453127941,40.774155070898047],[-119.20791948352452,40.774151118669998],[-119.20788409496296,40.774149797019909],[-119.20784870640178,40.774151118675874],[-119.20781365864801,40.774155070909757],[-119.20777928922665,40.774161615659828],[-119.20774592913033,40.774170689897332],[-119.20771389963176,40.774182206233377],[-119.20768350918982,40.774196053760583],[-119.20765505047918,40.774212099121087],[-119.20762879757146,40.774230187790792],[-119.20760500329624,40.774250145567507],[-119.20758389680572,40.774271780248483],[-119.20756568136815,40.774294883481431],[-119.20755053241017,40.774319232770978],[-119.20753859582712,40.774344593621365],[-119.20752998657818,40.774370721794753],[-119.20752478757872,40.774397365663276],[-119.207523048902,40.774424268632394],[-119.20752478729659,40.774451171611936],[-119.20752998602497,40.774477815511368],[-119.20753859502457,40.774503943734913],[-119.20755053138971,40.774529304652738],[-119.20756568016994,40.774553654024366],[-119.20758389547684,40.774576757350786],[-119.20760500188904,40.774598392132987],[-119.20762879614148,40.774618350014634],[-119.2076550490829,40.774636438788889],[-119.20768350788273,40.774652484249373],[-119.20771389846594,40.774666331868055],[-119.20774592815262,40.774677848283361],[-119.20777928847673,40.774686922584728],[-119.20781365815685,40.774693467380672],[-119.20784870619049,40.774697419640489],[-119.2078840950419,40.774698741301293]]]},"properties":{"OBJECTID":8,"name":"4:30 & B Plaza","FID":2}},{"type":"Feature","id":9,"geometry":{"type":"Polygon","coordinates":[[[-119.19967751210868,40.777283146377563],[-119.19971290249079,40.7772818272283],[-119.19974795236487,40.777277877457252],[-119.19978232417749,40.777271335103315],[-119.19981568690567,40.777262263173682],[-119.19984771924477,40.777250749037016],[-119.1998781127032,40.777236903581937],[-119.1999065745734,40.777220860149157],[-119.19993283075075,40.77720277324719],[-119.19995662837353,40.777182817064364],[-119.19997773825801,40.777161183791229],[-119.19999595710568,40.7771380817695],[-119.20001110946106,40.777113733485663],[-119.20002304940134,40.777088373428256],[-119.20003166194161,40.777062245829462],[-119.20003686414211,40.777035602313113],[-119.20003860590677,40.777008699471267],[-119.20003687046571,40.776981796393152],[-119.20003167453625,40.776955152169968],[-119.20002306816214,40.776929023399738],[-119.20001113423109,40.776903661715991],[-119.19999598767667,40.776879311364667],[-119.19997777437112,40.77685620685169],[-119.19995666972051,40.776834570684777],[-119.19993287697538,40.776814611230542],[-119.19990662527331,40.776796520707876],[-119.19987816743208,40.776780473336849],[-119.19984777751509,40.776766623660855],[-119.19981574819184,40.776755105058527],[-119.1997823879196,40.776746028459009],[-119.19974801797277,40.776739481273957],[-119.19971296934899,40.776735526555598],[-119.19967757958173,40.776734202389584],[-119.19964218948955,40.776735521528181],[-119.19960713989424,40.776739471267511],[-119.19957276833858,40.776746013569884],[-119.19953940583567,40.776755085430125],[-119.19950737368146,40.776766599482229],[-119.19947698036039,40.776780444840817],[-119.19944851857485,40.776796488168877],[-119.19942226242614,40.776814574961939],[-119.19939846477489,40.776834531035824],[-119.19937735480593,40.77685616420424],[-119.199359135821,40.776879266129413],[-119.19934398328091,40.776903614328624],[-119.19933204311552,40.776928974316576],[-119.19932343031837,40.77695510186372],[-119.19931822783913,40.776981745348252],[-119.19931648578455,40.777008648179333],[-119.19931822093569,40.777035551268114],[-119.19932341658634,40.777062195523015],[-119.19933202270353,40.777088324344803],[-119.19934395640932,40.777113686097934],[-119.19935910277889,40.777138036533863],[-119.199377315947,40.777161141143324],[-119.19939842051296,40.77718277741495],[-119.19942221322947,40.777202736978083],[-119.19944846495999,40.777220827609646],[-119.19947692288571,40.777236875085443],[-119.19950731293994,40.777250724857964],[-119.19953934244791,40.777262243544961],[-119.1995727029453,40.77727132021392],[-119.199607073149,40.777277867450586],[-119.19964212205147,40.777281822200749],[-119.19967751210868,40.777283146377563]]]},"properties":{"OBJECTID":9,"name":"3:00 & B Plaza","FID":0}},{"type":"Feature","id":10,"geometry":{"type":"Polygon","coordinates":[[[-119.21553974687261,40.778141220455161],[-119.21563176221966,40.778137777997678],[-119.21572289059041,40.77812749600281],[-119.21581225434163,40.778110473494912],[-119.21589899282664,40.778086874415074],[-119.21598227068439,40.778056926042062],[-119.21602235972817,40.778039658687632],[-119.21606128588569,40.778020916803364],[-119.21609895537894,40.77800074554127],[-119.21613527745757,40.777979193496982],[-119.21617016461768,40.777956312592543],[-119.21620353281251,40.777932157951398],[-119.21623530165499,40.777906787765509],[-119.21626539461134,40.777880263155225],[-119.21629373918557,40.77785264802197],[-119.21632026709396,40.777824008894306],[-119.21634491442965,40.777794414767676],[-119.21636762181657,40.777763936938122],[-119.21638833455251,40.777732648830572],[-119.21640700274072,40.777700625821858],[-119.21642358141033,40.777667945059221],[-119.21643803062454,40.777634685274393],[-119.21645031557674,40.777600926593891],[-119.21646040667446,40.777566750346004],[-119.21646827961062,40.777532238864914],[-119.21647391542197,40.777497475292215],[-119.21647730053473,40.777462543376735],[-119.21647842679749,40.777427527272721],[-119.21647729150048,40.777392511337105],[-119.21647389738231,40.777357579926274],[-119.21646825262323,40.777322817192847],[-119.21646037082536,40.777288306882951],[-119.21645027098008,40.777254132134544],[-119.21643797742195,40.777220375276997],[-119.21642351977029,40.777187117632813],[-119.21640693285774,40.777154439321826],[-119.21638825664621,40.777122419068007],[-119.21636753613079,40.777091134010007],[-119.21634482123106,40.777060659515151],[-119.21632016667108,40.777031068998021],[-119.21629363184738,40.777002433743597],[-119.2162652806858,40.776974822735426],[-119.21623518148773,40.776948302489537],[-119.21620340676522,40.776922936894231],[-119.21617003306658,40.776898787056098],[-119.21613514079175,40.776875911152892],[-119.2160988139988,40.776854364293307],[-119.21606114020125,40.776834198384364],[-119.21602221015742,40.776815462006212],[-119.21598211765168,40.776798200295246],[-119.2158988341599,40.7767682635574],[-119.21581209177357,40.776744676469768],[-119.2157227258473,40.776727666182133],[-119.21563159699886,40.776717396507848],[-119.21553958282169,40.776713966346385],[-119.21544756943442,40.776717408731052],[-119.21535644294804,40.776727690510867],[-119.21526708093329,40.776744712669732],[-119.21518034397026,40.776768311280016],[-119.21509706736134,40.776798259080913],[-119.21505697882414,40.776815526117595],[-119.21501805308785,40.776834267666992],[-119.21498038392647,40.77685443858033],[-119.2149440620871,40.77687599026531],[-119.21490917507138,40.77689887080335],[-119.21487580692464,40.776923025074588],[-119.21484403803346,40.776948394890567],[-119.21481394493217,40.776974919134517],[-119.21478560011811,40.777002533908558],[-119.21475907187732,40.777031172687558],[-119.21473442411987,40.777060766479437],[-119.21471171622586,40.777091243991393],[-119.21469100290243,40.777122531801538],[-119.214672334052,40.77715455453594],[-119.21465575465169,40.777187235049965],[-119.21464130464551,40.777220494614291],[-119.21462901884756,40.77725425310453],[-119.21461892685849,40.777288429194186],[-119.21461105299404,40.777322940550661],[-119.21460541622638,40.777357704033534],[-119.21460203013832,40.777392635894792],[-119.21460090289091,40.77742765198078],[-119.21460203720325,40.777462667934735],[-119.2146054303463,40.777497599400078],[-119.21461107414919,40.777532362223646],[-119.21461895501892,40.777566872658447],[-119.21462905397314,40.777601047565355],[-119.21464134668585,40.777634804613434],[-119.21465580354584,40.777668062478355],[-119.21467238972814,40.777700741038181],[-119.21469106527779,40.777732761566511],[-119.21471178520622,40.777764046922115],[-119.21473449959932,40.77779452173472],[-119.21475915373809,40.777824112586707],[-119.21478568822992,40.777852748189908],[-119.21481403915222,40.777880359557393],[-119.21484413820595,40.777906880169638],[-119.21487591288039,40.777932246134874],[-119.21490928662767,40.777956396342923],[-119.21494417904744,40.777979272612463],[-119.2149805060802,40.77800081983127],[-119.21501818021017,40.778020986088876],[-119.21505711067576,40.778039722801779],[-119.21509720368861,40.778056984830343],[-119.21518048843011,40.778086922139885],[-119.21526723233913,40.778110509696624],[-119.21535660000242,40.778127520332738],[-119.21544773073556,40.778137790221514],[-119.21553974687261,40.778141220455161]]]},"properties":{"OBJECTID":10,"name":"Center Camp Plaza","FID":8}},{"type":"Feature","id":11,"geometry":{"type":"Polygon","coordinates":[[[-119.19628871644436,40.780828303754525],[-119.19709089302292,40.780991772488584],[-119.19713186709207,40.780881436264181],[-119.19718739725981,40.780740248125639],[-119.19725195473787,40.780586345384997],[-119.19731151496048,40.780452619823436],[-119.19697012208424,40.78036322901476],[-119.1968677065323,40.780336412385701],[-119.19652631366179,40.780247018461168],[-119.19646215221195,40.780391193591804],[-119.19639486703359,40.780551573554618],[-119.19634333817582,40.780681875407673],[-119.19628871644436,40.780828303754525]]]},"properties":{"OBJECTID":11,"name":"2:00 & B Plaza","FID":11}},{"type":"Feature","id":12,"geometry":{"type":"Polygon","coordinates":[[[-119.21085135703842,40.79145172262092],[-119.21106636912309,40.792061502085026],[-119.21124125163773,40.792023942666489],[-119.21146364084464,40.791973024018731],[-119.2116690610716,40.791922798052056],[-119.21183122442012,40.791880947762827],[-119.21171363389614,40.79162143066911],[-119.21167835798406,40.791543577046269],[-119.21156076865078,40.791284064284419],[-119.21141911547473,40.791320698273807],[-119.21120789308311,40.791372367608531],[-119.21101781194336,40.791415888377102],[-119.21085135703842,40.79145172262092]]]},"properties":{"OBJECTID":12,"name":"10:00 & B Plaza","FID":10}}]}