{"type":"FeatureCollection","features":[{"type":"Feature","id":1,"geometry":{"type":"Polygon","coordinates":[[[-119.23741804687332,40.779710354169801],[-119.22499802699686,40.770249976319299],[-119.21258152982396,40.760788245934009],[-119.19691201747042,40.766837208640638],[-119.18123966413327,40.772884036710664],[-119.18672255288013,40.799326749138309],[-119.20406455424001,40.801425164428913],[-119.22140764745997,40.803520972453228],[-119.22941427666288,40.79161595294601],[-119.23741804687332,40.779710354169801]]]},"properties":{"OBJECTID":1,"Shape_Length":48694.577913243484,"Shape_Area":163181138.40631184,"FID":0}}]}